TIANMU-1 08             
1 57400U 23101B   26066.00237819  .00000346  00000+0  14775-4 0  9993
2 57400  97.2717 118.7901 0006380 134.2174 225.9592 15.29204229146020
STARLINK-31607          
1 59394U 24062W   26068.82924367  .00003564  00000+0  13237-3 0  9993
2 59394  53.1600 254.9500 0000977  87.6383 272.4730 15.30206188109683
